NORAD_CAT_ID,OBJECT_NAME,OBJECT_TYPE,EPOCH,MEAN_MOTION,ECCENTRICITY,INCLINATION,RA_OF_ASC_NODE,ARG_OF_PERICENTER,MEAN_ANOMALY,BSTAR,MEAN_MOTION_DOT,MEAN_MOTION_DDOT,TLE_LINE0,TLE_LINE1,TLE_LINE2,SEMIMAJOR_AXIS,PERIOD,APOGEE,PERIGEE,DECAYED
53966.0,STARLINK-4635,PAYLOAD,2024-01-01 13:55:33,15.08844733,0.0001385,53.215,207.0479,100.6592,259.4556,-8.8151e-05,-1.691e-05,0.0,0 STARLINK-4635,1 53966U 22125C   24001.58025405 -.00001691  00000-0 -88151-4 0  9993,2 53966  53.2150 207.0479 0001385 100.6592 259.4556 15.08844733 68830,6917.866,95.437,540.689,538.773,0.0
53966.0,STARLINK-4635,PAYLOAD,2024-01-01 18:41:43,15.08839484,0.0001236,53.215,206.158,83.2982,276.815,5.5803e-07,-2.79e-06,0.0,0 STARLINK-4635,1 53966U 22125C   24001.77897402 -.00000279  00000-0  55803-6 0  9998,2 53966  53.2150 206.1580 0001236  83.2982 276.8150 15.08839484 68860,6917.882,95.438,540.602,538.892,0.0
53966.0,STARLINK-4635,PAYLOAD,2024-01-01 23:27:52,15.08840855,0.0001255,53.2149,205.2655,88.496,271.6176,6.5967e-06,-1.83e-06,0.0,0 STARLINK-4635,1 53966U 22125C   24001.97769262 -.00000183  00000-0  65967-5 0  9997,2 53966  53.2149 205.2655 0001255  88.4960 271.6176 15.08840855 68961,6917.878,95.438,540.611,538.875,0.0
53966.0,STARLINK-4635,PAYLOAD,2024-01-02 20:07:53,15.08840589,0.0001351,53.2154,201.4002,96.1726,263.942,0.00010418,1.371e-05,0.0,0 STARLINK-4635,1 53966U 22125C   24002.83881049  .00001371  00000-0  10418-3 0  9999,2 53966  53.2154 201.4002 0001351  96.1726 263.9420 15.08840589 69022,6917.879,95.438,540.678,538.809,0.0
53966.0,STARLINK-4635,PAYLOAD,2024-01-02 23:18:39,15.08840742,0.0001352,53.2154,200.8055,95.9106,264.204,0.00010161,1.33e-05,0.0,0 STARLINK-4635,1 53966U 22125C   24002.97129030  .00001330  00000-0  10161-3 0  9999,2 53966  53.2154 200.8055 0001352  95.9106 264.2040 15.08840742 69048,6917.878,95.438,540.678,538.808,0.0
53966.0,STARLINK-4635,PAYLOAD,2024-01-03 19:58:41,15.0883261,0.0001328,53.2148,196.9388,97.0938,263.0205,2.2175e-05,6.5e-07,0.0,0 STARLINK-4635,1 53966U 22125C   24003.83242012  .00000065  00000-0  22175-4 0  9994,2 53966  53.2148 196.9388 0001328  97.0938 263.0205 15.08832610 69241,6917.903,95.438,540.687,538.849,0.0
53966.0,STARLINK-4635,PAYLOAD,2024-01-04 11:52:32,15.08837087,0.0001381,53.2151,193.9632,96.9683,263.1466,1.7288e-05,-1.3e-07,0.0,0 STARLINK-4635,1 53966U 22125C   24004.49481943 -.00000013  00000-0  17288-4 0  9998,2 53966  53.2151 193.9632 0001381  96.9683 263.1466 15.08837087 69274,6917.889,95.438,540.71,538.799,0.0
53966.0,STARLINK-4635,PAYLOAD,2024-01-04 21:24:51,15.088391,0.0001364,53.2151,192.1799,89.6524,270.4625,3.9116e-05,3.35e-06,0.0,0 STARLINK-4635,1 53966U 22125C   24004.89225812  .00000335  00000-0  39116-4 0  9993,2 53966  53.2151 192.1799 0001364  89.6524 270.4625 15.08839100 69336,6917.883,95.438,540.692,538.805,0.0
53966.0,STARLINK-4635,PAYLOAD,2024-01-05 21:15:38,15.08840721,0.0001322,53.2152,187.7194,89.286,270.8283,0.00011657,1.568e-05,0.0,0 STARLINK-4635,1 53966U 22125C   24005.88585665  .00001568  00000-0  11657-3 0  9996,2 53966  53.2152 187.7194 0001322  89.2860 270.8283 15.08840721 69480,6917.878,95.438,540.658,538.829,0.0
53966.0,STARLINK-4635,PAYLOAD,2024-01-06 11:34:06,15.08842008,0.0001332,53.2153,185.043,88.7022,271.4122,6.7441e-05,7.86e-06,0.0,0 STARLINK-4635,1 53966U 22125C   24006.48201749  .00000786  00000-0  67441-4 0  9995,2 53966  53.2153 185.0430 0001332  88.7022 271.4122 15.08842008 69647,6917.874,95.437,540.661,538.818,0.0
53966.0,STARLINK-4635,PAYLOAD,2024-01-06 19:31:01,15.08844554,0.0001378,53.2157,183.5568,86.7967,273.3183,8.8664e-05,1.124e-05,0.0,0 STARLINK-4635,1 53966U 22125C   24006.81321502  .00001124  00000-0  88664-4 0  9999,2 53966  53.2157 183.5568 0001378  86.7967 273.3183 15.08844554 69626,6917.866,95.437,540.685,538.778,0.0
53966.0,STARLINK-4635,PAYLOAD,2024-01-07 11:24:53,15.08841458,0.0001436,53.2159,180.5845,82.1272,277.9883,1.673e-05,-2.2e-07,0.0,0 STARLINK-4635,1 53966U 22125C   24007.47561897 -.00000022  00000-0  16730-4 0  9997,2 53966  53.2159 180.5845 0001436  82.1272 277.9883 15.08841458 69725,6917.876,95.437,540.734,538.748,0.0
53966.0,STARLINK-4635,PAYLOAD,2024-01-07 17:46:26,15.08840757,0.0001431,53.216,179.395,82.4716,277.6438,7.8167e-06,-1.64e-06,0.0,0 STARLINK-4635,1 53966U 22125C   24007.74057942 -.00000164  00000-0  78167-5 0  9998,2 53966  53.2160 179.3950 0001431  82.4716 277.6438 15.08840757 69837,6917.878,95.438,540.733,538.753,0.0
53966.0,STARLINK-4635,PAYLOAD,2024-01-08 14:26:26,15.08843612,0.0001435,53.2162,175.5293,83.5598,276.5557,5.2993e-05,5.56e-06,0.0,0 STARLINK-4635,1 53966U 22125C   24008.60169488  .00000556  00000-0  52993-4 0  9995,2 53966  53.2162 175.5293 0001435  83.5598 276.5557 15.08843612 69890,6917.869,95.437,540.727,538.742,0.0
53966.0,STARLINK-4635,PAYLOAD,2024-01-08 17:37:12,15.0884395,0.0001434,53.2162,174.9346,83.6085,276.5071,5.4124e-05,5.74e-06,0.0,0 STARLINK-4635,1 53966U 22125C   24008.73417432  .00000574  00000-0  54124-4 0  9992,2 53966  53.2162 174.9346 0001434  83.6085 276.5071 15.08843950 69912,6917.868,95.437,540.725,538.741,0.0
53966.0,STARLINK-4635,PAYLOAD,2024-01-09 14:17:13,15.08838253,0.0001407,53.2163,171.0687,85.6363,274.479,5.7616e-05,6.29e-06,0.0,0 STARLINK-4635,1 53966U 22125C   24009.59529766  .00000629  00000-0  57616-4 0  9991,2 53966  53.2163 171.0687 0001407  85.6363 274.4790 15.08838253 70041,6917.886,95.438,540.724,538.777,0.0
53966.0,STARLINK-4635,PAYLOAD,2024-01-09 17:27:59,15.0883851,0.0001403,53.2167,170.474,93.6922,266.4231,5.8731e-05,6.47e-06,0.0,0 STARLINK-4635,1 53966U 22125C   24009.72777719  .00000647  00000-0  58731-4 0  9998,2 53966  53.2167 170.4740 0001403  93.6922 266.4231 15.08838510 70131,6917.885,95.438,540.721,538.779,0.0
53966.0,STARLINK-4635,PAYLOAD,2024-01-09 20:38:46,15.08840472,0.0001372,53.2163,169.8785,91.3065,268.8084,7.3874e-05,8.88e-06,0.0,0 STARLINK-4635,1 53966U 22125C   24009.86025546  .00000888  00000-0  73874-4 0  9999,2 53966  53.2163 169.8785 0001372  91.3065 268.8084 15.08840472 70082,6917.879,95.438,540.693,538.795,0.0
53966.0,STARLINK-4635,PAYLOAD,2024-01-10 09:21:51,15.0883709,0.0001412,53.2163,167.4978,87.8843,272.2311,-1.9582e-05,-6e-06,0.0,0 STARLINK-4635,1 53966U 22125C   24010.39018157 -.00000600  00000-0 -19582-4 0  9999,2 53966  53.2163 167.4978 0001412  87.8843 272.2311 15.08837090 70162,6917.889,95.438,540.731,538.777,0.0
53966.0,STARLINK-4635,PAYLOAD,2024-01-10 20:29:33,15.08841854,0.0001408,53.2168,165.4154,93.7627,266.3526,1.136e-05,-1.07e-06,0.0,0 STARLINK-4635,1 53966U 22125C   24010.85385716 -.00000107  00000-0  11360-4 0  9995,2 53966  53.2168 165.4154 0001408  93.7627 266.3526 15.08841854 70303,6917.875,95.437,540.714,538.766,0.0
53966.0,STARLINK-4635,PAYLOAD,2024-01-11 09:12:38,15.08832089,0.0001486,53.2166,163.037,99.7261,260.3899,1.7322e-05,-1.2e-07,0.0,0 STARLINK-4635,1 53966U 22125C   24011.38378412 -.00000012  00000-0  17322-4 0  9998,2 53966  53.2166 163.0370 0001486  99.7261 260.3899 15.08832089 70386,6917.905,95.438,540.798,538.742,0.0
53966.0,STARLINK-4635,PAYLOAD,2024-01-11 13:58:48,15.08837494,0.0001663,53.2164,162.1455,107.6295,252.4879,5.017e-05,5.1e-06,0.0,0 STARLINK-4635,1 53966U 22125C   24011.58250007  .00000510  00000-0  50170-4 0  9999,2 53966  53.2164 162.1455 0001663 107.6295 252.4879 15.08837494 70342,6917.888,95.438,540.903,538.603,0.0
53966.0,STARLINK-4635,PAYLOAD,2024-01-11 15:34:11,15.08839475,0.0001691,53.2169,161.8476,106.4087,253.7091,6.1253e-05,6.87e-06,0.0,0 STARLINK-4635,1 53966U 22125C   24011.64873867  .00000687  00000-0  61253-4 0  9990,2 53966  53.2169 161.8476 0001691 106.4087 253.7091 15.08839475 70423,6917.882,95.438,540.917,538.577,0.0
53966.0,STARLINK-4635,PAYLOAD,2024-01-11 20:20:20,15.08840343,0.0001677,53.2166,160.9563,106.9142,253.2034,6.9136e-05,8.12e-06,0.0,0 STARLINK-4635,1 53966U 22125C   24011.84745823  .00000812  00000-0  69136-4 0  9990,2 53966  53.2166 160.9563 0001677 106.9142 253.2034 15.08840343 70381,6917.879,95.438,540.904,538.584,0.0
53966.0,STARLINK-4635,PAYLOAD,2024-01-12 09:03:26,15.08833236,0.0002138,53.2168,158.5749,115.5285,244.5929,1.8501e-05,6e-08,0.0,0 STARLINK-4635,1 53966U 22125C   24012.37738693  .00000006  00000-0  18501-4 0  9991,2 53966  53.2168 158.5749 0002138 115.5285 244.5929 15.08833236 70535,6917.901,95.438,541.245,538.287,0.0
53966.0,STARLINK-4635,PAYLOAD,2024-01-12 13:49:35,15.08839263,0.0001787,53.2165,157.685,108.0221,252.0966,-8.8425e-05,-1.695e-05,0.0,0 STARLINK-4635,1 53966U 22125C   24012.57610686 -.00001695  00000-0 -88425-4 0  9993,2 53966  53.2165 157.6850 0001787 108.0221 252.0966 15.08839263 70497,6917.883,95.438,540.984,538.511,0.0
53966.0,STARLINK-4635,PAYLOAD,2024-01-12 18:35:45,15.08836131,0.0001443,53.2166,156.793,89.7004,270.4153,1.8327e-05,4e-08,0.0,0 STARLINK-4635,1 53966U 22125C   24012.77482752  .00000004  00000-0  18327-4 0  9991,2 53966  53.2166 156.7930 0001443  89.7004 270.4153 15.08836131 70527,6917.892,95.438,540.755,538.759,0.0
53966.0,STARLINK-4635,PAYLOAD,2024-01-13 13:40:22,15.08842609,0.0001436,53.2165,153.2249,84.3088,275.8068,6.3498e-05,7.23e-06,0.0,0 STARLINK-4635,1 53966U 22125C   24013.56970477  .00000723  00000-0  63498-4 0  9992,2 53966  53.2165 153.2249 0001436  84.3088 275.8068 15.08842609 70640,6917.872,95.437,540.731,538.744,0.0
53966.0,STARLINK-4635,PAYLOAD,2024-01-13 18:26:31,15.08851488,0.0001586,53.2168,152.3324,96.0027,264.1146,0.00014939,2.091e-05,0.0,0 STARLINK-4635,1 53966U 22125C   24013.76841721  .00002091  00000-0  14939-3 0  9998,2 53966  53.2168 152.3324 0001586  96.0027 264.1146 15.08851488 70740,6917.845,95.437,540.807,538.613,0.0
53966.0,STARLINK-4635,PAYLOAD,2024-01-14 08:45:00,15.08836798,0.0001544,53.2167,149.6575,91.2782,268.8387,0.00012618,1.721e-05,0.0,0 STARLINK-4635,1 53966U 22125C   24014.36458844  .00001721  00000-0  12618-3 0  9996,2 53966  53.2167 149.6575 0001544  91.2782 268.8387 15.08836798 70830,6917.89,95.438,540.823,538.687,0.0
